ONEWEB-0171             
1 48070U 21025AE  26027.31826378  .00000008  00000+0 -12427-4 0  9992
2 48070  87.9007 348.2325 0001638  82.9147 277.2169 13.13470876235125
ONEWEB-0172             
1 48071U 21025AF  26027.29795459 -.00000197  00000+0 -57378-3 0  9998
2 48071  87.9018 348.2234 0001642  85.4354 274.6963 13.13470384236016
ONEWEB-0174             
1 48072U 21025AG  26027.27932905  .00000018  00000+0  14652-4 0  9995
2 48072  87.9018 348.2280 0001927  85.2185 274.9165 13.13468874235336
ONEWEB-0175             
1 48073U 21025AH  26027.30980748 -.00000101  00000+0 -31009-3 0  9997
2 48073  87.9024 348.1943 0001469  81.6271 278.5024 13.13470822234997
ONEWEB-0177             
1 48074U 21025AJ  26027.24548006  .00000163  00000+0  41178-3 0  9992
2 48074  87.9024 348.2276 0001896  88.0267 272.1079 13.13469577235174
ONEWEB-0178             
1 48075U 21025AK  26027.26425100  .00000348  00000+0  91826-3 0  9994
2 48075  87.9007 348.2591 0001600  88.3112 271.8200 13.13469421235227
ONEWEB-0108             
1 48076U 21025AL  26027.29963701 -.00000238  00000+0 -68792-3 0  9998
2 48076  87.9024 348.2056 0001981  77.5064 282.6287 13.13469629235158
ONEWEB-0169             
1 48077U 21025AM  26027.25563928  .00000397  00000+0  10519-2 0  9999
2 48077  87.9019 348.2332 0001927  78.9820 281.1526 13.13470936233808
